#dP2020  3 22  0  0  0.00000000      96 __u+U ITR00 FIT  IAC
## 2098      0.00000000   900.00000000 58930 0.0000000000000
+  110   C06C07C08C09C10C11C12C13C14C16C19C20C21C22C23C24C25
+        C26C27C28C29C30C32C33C34C35C36C37C43C44C45C46E01E02
+        E03E04E05E07E08E09E11E12E13E14E15E18E21E24E25E26E27
+        E30E31E33E36G01G02G03G04G05G06G07G08G09G10G11G12G13
+        G14G15G16G17G18G19G20G21G22G23G24G25G26G27G28G29G30
+        G31G32R01R02R03R04R05R07R08R09R11R12R13R14R15R16R17
+        R18R19R20R21R22R23R24R26  0  0  0  0  0  0  0  0  0
++         9  9  9 10  8  0  8  9  8  9  8  8  8  8  8  8  8
++         8  8  8  8  8  8  8  8  9  8  8 12 13 12  0  4  4
++         4  4  4  4  4  4  4  4  5  4  4  4  4  4  4  4  5
++         4  4  4  4  3  3  4  4  4  3  4  4  4  4  3  3  3
++         3  3  4  3  4  3  4  4  3  4  3  3  4  4  3  3  4
++         0  3  6  5  6  6  5  5  6  6  6  6  6  5  6  6  6
++         6  6  6  5  5  5  6  8  0  0  0  0  0  0  0  0  0
%c M  cc GPS ccc cccc cccc cccc cccc ccccc ccccc ccccc ccccc
%c cc cc ccc ccc cccc cccc cccc cccc ccccc ccccc ccccc ccccc
%f  0.0000000  0.000000000  0.00000000000  0.000000000000000
%f  0.0000000  0.000000000  0.00000000000  0.000000000000000
%i    0    0    0    0      0      0      0      0         0
%i    0    0    0    0      0      0      0      0         0
/* INFORMATION & ANALYSIS CENTER (IAC)      ULTRA-RAPID DATA
/* S/V CLOCKS ARE ALIGNED TO GNSS TIME                      
/* G:C1WC2W R:C1PC2P E:C1XC5X C:C2IC6I J:C1CC2S             
/* PCV:IGS14_2091 OL/AL:FES2004  NONE     YN ORB:CoN CLK:CoN
*  2020 03 22  8  0  0.00000000
PC06  -7162.412257  30443.062261 -27693.376793    240.992514
PC07 -20172.570661  23174.622986  28867.994809    922.675129
PC08 -21905.403604  36202.419381  -1301.616916   -166.076185
PC09   3816.495398  38148.723143 -16865.528916    418.821048
PC10  -4232.187072  26136.100270  32950.961002   -779.560336
PC11  15781.008097   5734.439576 -22237.770424 999999.999999
PC12  11209.728142  23328.465404 -10423.121582    335.991978
PC13 -11800.357396  37861.879402 -14584.196009    337.479862
PC14  26924.052267   5985.906849   4467.908296    222.670540
PC16  -3196.041960  33096.384333 -25742.068178   -714.479458
PC19 -24753.191956    924.512134 -12808.855233    359.073599
PC20 -25079.006338 -11544.368534   3982.114972   -906.529671
PC21  10488.534837  17584.528450 -18947.834267   -199.545887
PC22  -9994.018970  13118.201735 -22499.203561   -863.158092
PC23  16804.233091 -21015.401730  -7396.435285   -932.670514
PC24  16512.888725   6182.590230  21612.362586   -890.848336
PC25  23443.682141 -11509.044727   9800.208118   -556.672678
PC26    862.260506  18779.406195  20626.306596    615.631332
PC27  -5775.822882 -27266.247647   1622.532591    299.472861
PC28   6730.491543 -22502.236733 -15063.561649    290.436133
PC29 -15092.073143   5212.165052  22882.419498    204.298225
PC30 -15411.643006 -15756.448893  17131.801385    290.403555
PC32 -10586.534788 -17532.409179  18969.823939   -904.773459
PC33  24797.462174  -1039.668797  12785.784953   -900.711670
PC34  15498.392150  15339.185434 -17400.933605   -567.968550
PC35  -6113.438942  22599.273859  15159.800568   -928.044267
PC36 -23706.212841  10805.897814  -9978.941546   -821.527854
PC37    163.759737 -19057.600509 -20365.892956   -854.244860
PC43  15297.336883  -4903.519597 -22820.736346 999999.999999
PC44   6551.305679  27064.958437  -1471.088730 999999.999999
PC45 -16801.855183  21042.178367   7365.523316 999999.999999
PC46 -16798.451191  -5635.204888 -21563.515761 999999.999999
PE01  22204.911658 -15005.495863 -12565.008395   -819.870575
PE02 -22168.888149  15030.423264  12614.872923    121.089429
PE03 -11601.260119  12591.873934 -24144.543989   -279.476691
PE04  -6765.097824 -23291.469965  16975.285047   -489.979389
PE05 -23392.202584  -5630.086099 -17238.025963   -395.174557
PE07  21434.485903  20418.897616    326.227110   -357.554439
PE08   7193.365951  23218.498826 -16895.856309   6203.288496
PE09 -21589.810178 -20234.948642   -389.992759   6117.760292
PE11 -10290.870111 -17694.294489  21390.774129   1859.117583
PE12   2850.177747 -28867.570010   5964.760356   5892.202804
PE13  10162.629041  17842.788823 -21304.198723    399.428819
PE14  14824.143784  24107.880104  -3158.119241   -949.368821
PE15  -2622.537575  28829.359148  -6140.239173    873.144200
PE18  -3954.922939 -26823.427940  -9639.563566  -1047.547130
PE21  28701.994163  -4124.016826   5927.503471   -589.275542
PE24 -18332.607105  -9589.609707 -21194.532145   5547.574625
PE25 -28696.390157   4039.904921  -6046.824936   -507.396789
PE26  17203.888527  -3868.458297 -23765.626502   3391.076828
PE27  18457.565858   9374.858740  21150.389722    257.120038
PE30  -2936.403529  17366.213363  23779.154654   4047.642617
PE31   2568.415658 -17299.950867 -23878.242205   -472.061795
PE33  13862.879067 -22913.375313 -12612.009622   -469.243103
PE36 -16989.777298   3600.826431  23978.154909    582.889289
PG01 -14585.348152  21842.367629   2221.821906   -333.967003
PG02  17232.361046  -4849.757919 -18958.536658   -426.194354
PG03 -13688.498865  12943.985123 -18737.427068   -124.416344
PG04  -4777.542427  18472.729665 -18456.427183    -65.652061
PG05  26531.053350  -1970.532276   1705.224760     -9.533137
PG06  12751.544443   7510.644749 -22001.211560   -236.402651
PG07  -2088.126219  22569.393856  13732.727789   -241.284069
PG08 -12634.042873   8130.192608  21920.702764    -27.981794
PG09   5014.575249  23670.012801 -10990.137345   -181.755973
PG10 -16927.483859 -11747.824777  16973.147003   -285.396954
PG11 -12750.628240  17524.444346  15054.721443   -327.038059
PG12  16407.639533 -10920.757797 -17955.141604    137.953377
PG13  16022.025627    778.757571  21063.453682     -3.903656
PG14 -17331.077799 -14998.471667 -13240.515315    -24.700278
PG15  12087.758300 -10141.684503  21044.282695   -243.287352
PG16 -26655.831119   -696.570357   2562.051752   -137.801062
PG17  14310.287704  21860.584314  -4485.865891    236.154318
PG18   8101.041615 -23964.833973   8075.820291    127.694035
PG19  16670.903380  16516.261372 -12737.534441   -182.462929
PG20  -5679.205414 -15021.112295  21092.818641    527.859270
PG21   -364.407831 -22782.442289  14650.893844    -24.480053
PG22 -20957.562638  10683.783466 -11986.566595   -785.431491
PG23  -3621.540399  18880.797961 -17796.977541   -127.949200
PG24  14504.982724 -21514.210995   4479.923123    -10.680229
PG25   4083.669997 -15003.281448 -21738.326024     -7.748230
PG26 -25028.100730  -4891.340896  -7853.699330    172.424412
PG27 -17447.427748  -3799.647909  19644.064602   -245.416937
PG28  16811.266893  12809.014488  16583.020032    731.117684
PG29  -1964.885054 -23243.588692 -12721.451787    -62.514948
PG30   7059.781332  16119.117691  19868.071834   -181.013700
PG31 -14890.587819  -4741.095205 -21559.625703 999999.999999
PG32 -16281.774166 -20371.243113  -5355.418075    242.023907
PR01  15727.301899  15628.271346 -12622.146217     58.906154
PR02  22547.165596   8610.733265   8211.553501    417.961912
PR03  14175.546348  -3365.830643  20967.918035     11.967006
PR04  -2262.527534 -13098.200782  21799.883707     42.850352
PR05 -17387.864755 -15600.980004  10281.971523     47.207323
PR07 -13797.758259   3647.957076 -21114.321683    -34.627010
PR08   2195.612093  13171.537902 -21675.692096    -51.179541
PR09 -21765.010165   6054.135250 -11771.184795    123.173457
PR11  -9177.879523  15500.384994  18048.667165    -17.558656
PR12   7195.532615   8423.673759  22995.820594    116.066099
PR13  20383.933525  -3966.993844  14788.718414    -36.342281
PR14  21473.098771 -13618.877436  -2079.518576     49.372012
PR15  10144.286791 -15492.293362 -17525.150422    106.187799
PR16  -8033.086094  -8061.682896 -22863.838673     -2.273015
PR17   8956.279467 -13653.899273 -19573.508948    311.051912
PR18   2744.052593 -24717.769630  -5798.531420     29.356996
PR19  -4156.118040 -22767.641532  10734.015427    -84.947534
PR20  -9949.775090  -6064.096396  22708.727884   -407.201239
PR21  -8690.836472  14513.867332  19102.701833   -112.904742
PR22  -1658.417770  25193.038072   3134.908918    -18.838965
PR23   7082.058159  18424.231277 -16156.572457    294.158105
PR24  10340.155374   3075.221917 -23134.254388    -48.730131
PR26  -9460.905609 -10429.524844  21276.936903   -402.573501
EOF
